NORAD_CAT_ID,OBJECT_NAME,OBJECT_TYPE,EPOCH,MEAN_MOTION,ECCENTRICITY,INCLINATION,RA_OF_ASC_NODE,ARG_OF_PERICENTER,MEAN_ANOMALY,BSTAR,MEAN_MOTION_DOT,MEAN_MOTION_DDOT,TLE_LINE0,TLE_LINE1,TLE_LINE2,SEMIMAJOR_AXIS,PERIOD,APOGEE,PERIGEE,DECAYED
51778.0,STARLINK-3615,PAYLOAD,2022-10-12 08:35:46,15.08829286,0.0001865,53.2165,155.1353,52.5005,307.6157,-7.1741e-05,-1.429e-05,0.0,0 STARLINK-3615,1 51778U 22017L   22285.35818092 -.00001429  00000-0 -71741-4 0  9997,2 51778  53.2165 155.1353 0001865  52.5005 307.6157 15.08829286 34704,6917.913000000001,95.438,541.068,538.488,0.0
51778.0,STARLINK-3615,PAYLOAD,2022-10-12 16:32:44,15.0870331,0.0002499,53.2159,153.6486,51.1965,308.925,0.0018507999999999,0.00029181,0.0,0 STARLINK-3615,1 51778U 22017L   22285.68940006  .00029181  00000-0  18508-2 0  9997,2 51778  53.2159 153.6486 0002499  51.1965 308.9250 15.08703310 34753,6918.2980000000025,95.446,541.8919999999998,538.434,0.0
51778.0,STARLINK-3615,PAYLOAD,2022-10-13 02:05:00,15.08841961,0.0001729,53.2169,151.8644,55.3265,304.789,0.0001165,1.567e-05,0.0,0 STARLINK-3615,1 51778U 22017L   22286.08681642  .00001567  00000-0  11650-3 0  9990,2 51778  53.2169 151.8644 0001729  55.3265 304.7890 15.08841961 36463,6917.874,95.437,540.935,538.543,0.0
51778.0,STARLINK-3615,PAYLOAD,2022-10-13 08:26:33,15.08841286,0.0001794,53.2169,150.6751,53.0321,307.0836,0.00029937,4.48e-05,0.0,0 STARLINK-3615,1 51778U 22017L   22286.35177452  .00004480  00000-0  29937-3 0  9993,2 51778  53.2169 150.6751 0001794  53.0321 307.0836 15.08841286 34856,6917.876,95.437,540.9830000000002,538.5,0.0
51778.0,STARLINK-3615,PAYLOAD,2022-10-13 17:58:52,15.08836596,0.0001805,53.2164,148.8908,55.4871,304.6291,0.0002996999999999,4.484e-05,0.0,0 STARLINK-3615,1 51778U 22017L   22286.74922013  .00004484  00000-0  29970-3 0  9998,2 51778  53.2164 148.8908 0001805  55.4871 304.6291 15.08836596 36569,6917.891,95.438,541.004,538.507,0.0
51778.0,STARLINK-3615,PAYLOAD,2022-10-13 21:09:39,15.08842042,0.000185,53.215,148.2958,55.6668,304.4499,0.00036456,5.519e-05,0.0,0 STARLINK-3615,1 51778U 22017L   22286.88170243  .00005519  00000-0  36456-3 0  9990,2 51778  53.2150 148.2958 0001850  55.6668 304.4499 15.08842042 34939,6917.874,95.437,541.019,538.4590000000002,0.0
51778.0,STARLINK-3615,PAYLOAD,2022-10-14 08:17:20,15.08849894,0.0001873,53.2152,146.2146,54.872,305.2447,0.00033706,5.082e-05,0.0,0 STARLINK-3615,1 51778U 22017L   22287.34537861  .00005082  00000-0  33706-3 0  9995,2 51778  53.2152 146.2146 0001873  54.8720 305.2447 15.08849894 35006,6917.85,95.437,541.011,538.419,0.0
51778.0,STARLINK-3615,PAYLOAD,2022-10-14 21:00:25,15.0885875,0.0001835,53.2133,143.8338,58.8823,301.2349,0.00028978,4.329e-05,0.0,0 STARLINK-3615,1 51778U 22017L   22287.87529002  .00004329  00000-0  28978-3 0  9999,2 51778  53.2133 143.8338 0001835  58.8823 301.2349 15.08858750 36736,6917.823,95.436,540.957,538.419,0.0
51778.0,STARLINK-3615,PAYLOAD,2022-10-15 00:11:11,15.08860714,0.0001878,53.2147,143.2406,54.3766,305.7401,0.00026695,3.965e-05,0.0,0 STARLINK-3615,1 51778U 22017L   22288.00776794  .00003965  00000-0  26695-3 0  9996,2 51778  53.2147 143.2406 0001878  54.3766 305.7401 15.08860714 35106,6917.816999999999,95.436,540.981,538.383,0.0
51778.0,STARLINK-3615,PAYLOAD,2022-10-15 19:15:48,15.08848807,0.0001811999999999,53.2152,139.6716,54.6623,305.4538,3.3812e-05,2.5e-06,0.0,0 STARLINK-3615,1 51778U 22017L   22288.80264718  .00000250  00000-0  33812-4 0  9996,2 51778  53.2152 139.6716 0001812  54.6623 305.4538 15.08848807 36870,6917.853,95.437,540.972,538.465,0.0
51778.0,STARLINK-3615,PAYLOAD,2022-10-16 01:37:21,15.08835881,0.0002205,53.2154,138.4838,47.8229,312.295,-0.00015217,-2.709e-05,0.0,0 STARLINK-3615,1 51778U 22017L   22289.06761415 -.00002709  00000-0 -15217-3 0  9992,2 51778  53.2154 138.4838 0002205  47.8229 312.2950 15.08835881 36914,6917.893,95.438,541.283,538.2330000000002,0.0
51778.0,STARLINK-3615,PAYLOAD,2022-10-16 19:06:37,15.08821777,0.0001785,53.2156,135.21200000000002,50.0507,310.0641,-0.00023904,-4.089e-05,0.0,0 STARLINK-3615,1 51778U 22017L   22289.79626432 -.00004089  00000-0 -23904-3 0  9996,2 51778  53.2156 135.2120 0001785  50.0507 310.0641 15.08821777 35373,6917.936,95.439,541.036,538.566,0.0
51778.0,STARLINK-3615,PAYLOAD,2022-10-17 06:14:20,15.08822672,0.0001833,53.2164,133.1304,51.5931,308.5226,-5.547e-05,-1.17e-05,0.0,0 STARLINK-3615,1 51778U 22017L   22290.25995425 -.00001170  00000-0 -55470-4 0  9992,2 51778  53.2164 133.1304 0001833  51.5931 308.5226 15.08822672 35448,6917.933000000001,95.439,541.066,538.53,0.0
51778.0,STARLINK-3615,PAYLOAD,2022-10-17 20:32:48,15.08826094,0.0001801,53.2162,130.4541,49.8181,310.2968,1.8784e-05,1.1e-07,0.0,0 STARLINK-3615,1 51778U 22017L   22290.85611587  .00000011  00000-0  18784-4 0  9990,2 51778  53.2162 130.4541 0001801  49.8181 310.2968 15.08826094 37189,6917.9230000000025,95.438,541.034,538.5419999999998,0.0
51778.0,STARLINK-3615,PAYLOAD,2022-10-18 06:05:07,15.088297,0.000182,53.2163,128.6696,51.5626,308.553,7.1534e-05,8.5e-06,0.0,0 STARLINK-3615,1 51778U 22017L   22291.25355646  .00000850  00000-0  71534-4 0  9999,2 51778  53.2163 128.6696 0001820  51.5626 308.5530 15.08829700 35590,6917.9119999999975,95.438,541.036,538.518,0.0
51778.0,STARLINK-3615,PAYLOAD,2022-10-18 20:23:35,15.08828701,0.0001821,53.2161,125.9932,52.6416,307.4742,0.00025754,3.812e-05,0.0,0 STARLINK-3615,1 51778U 22017L   22291.84972156  .00003812  00000-0  25754-3 0  9998,2 51778  53.2161 125.9932 0001821  52.6416 307.4742 15.08828701 35684,6917.915,95.438,541.04,538.52,0.0
51778.0,STARLINK-3615,PAYLOAD,2022-10-19 01:09:45,15.08834833,0.0001811999999999,53.2155,125.1012,49.1909,310.9240000000001,0.00039213,5.957e-05,0.0,0 STARLINK-3615,1 51778U 22017L   22292.04844235  .00005957  00000-0  39213-3 0  9994,2 51778  53.2155 125.1012 0001812  49.1909 310.9240 15.08834833 35715,6917.896,95.438,541.015,538.508,0.0
51778.0,STARLINK-3615,PAYLOAD,2022-10-19 21:49:45,15.0885168,0.0001911999999999,53.2153,121.2352,53.4802,306.6366,0.00032021,4.813e-05,0.0,0 STARLINK-3615,1 51778U 22017L   22292.90955413  .00004813  00000-0  32021-3 0  9990,2 51778  53.2153 121.2352 0001912  53.4802 306.6366 15.08851680 35842,6917.845,95.437,541.0319999999998,538.387,0.0
51778.0,STARLINK-3615,PAYLOAD,2022-10-20 05:46:40,15.08857491,0.0001902,53.2149,119.7483,54.8894,305.2277,0.00034149,5.153e-05,0.0,0 STARLINK-3615,1 51778U 22017L   22293.24074964  .00005153  00000-0  34149-3 0  9992,2 51778  53.2149 119.7483 0001902  54.8894 305.2277 15.08857491 37540,6917.8269999999975,95.436,541.008,538.376,0.0
51778.0,STARLINK-3615,PAYLOAD,2022-10-20 12:08:13,15.08856197,0.0002,53.2137,118.5594,59.5015,300.6175,0.00027797,4.14e-05,0.0,0 STARLINK-3615,1 51778U 22017L   22293.50570841  .00004140  00000-0  27797-3 0  9992,2 51778  53.2137 118.5594 0002000  59.5015 300.6175 15.08856197 35933,6917.831,95.437,541.0790000000002,538.312,0.0
51778.0,STARLINK-3615,PAYLOAD,2022-10-20 18:29:45,15.08857034,0.000249,53.2144,117.3684,62.2179,297.9065,0.00023547,3.463e-05,0.0,0 STARLINK-3615,1 51778U 22017L   22293.77066670  .00003463  00000-0  23547-3 0  9997,2 51778  53.2144 117.3684 0002490  62.2179 297.9065 15.08857034 35974,6917.828,95.436,541.4159999999998,537.971,0.0
51778.0,STARLINK-3615,PAYLOAD,2022-10-20 21:40:31,15.08857075,0.0001821999999999,53.2153,116.7752,55.8569,304.2596,-0.00036213,-6.05e-05,0.0,0 STARLINK-3615,1 51778U 22017L   22293.90314323 -.00006050  00000-0 -36213-3 0  9994,2 51778  53.2153 116.7752 0001822  55.8569 304.2596 15.08857075 37644,6917.828,95.436,540.9540000000002,538.433,0.0
51778.0,STARLINK-3615,PAYLOAD,2022-10-21 11:58:59,15.08853876,0.0001973,53.2158,114.0984,55.3362,304.7815,9.633e-05,1.246e-05,0.0,0 STARLINK-3615,1 51778U 22017L   22294.49930320  .00001246  00000-0  96330-4 0  9997,2 51778  53.2158 114.0984 0001973  55.3362 304.7815 15.08853876 36081,6917.8380000000025,95.437,541.068,538.3380000000002,0.0
51778.0,STARLINK-3615,PAYLOAD,2022-10-21 23:06:41,15.08854289,0.0001895,53.2151,112.0167,54.054,306.0628,8.7375e-05,1.103e-05,0.0,0 STARLINK-3615,1 51778U 22017L   22294.96297944  .00001103  00000-0  87375-4 0  9998,2 51778  53.2151 112.0167 0001895  54.0540 306.0628 15.08854289 37809,6917.837,95.437,541.013,538.391,0.0
51778.0,STARLINK-3615,PAYLOAD,2022-10-22 19:46:42,15.08848662,0.0001865,53.2165,108.1504,55.3744,304.7423,9.9073e-05,1.289e-05,0.0,0 STARLINK-3615,1 51778U 22017L   22295.82409898  .00001289  00000-0  99073-4 0  9990,2 51778  53.2165 108.1504 0001865  55.3744 304.7423 15.08848662 36289,6917.854,95.437,541.009,538.429,0.0
51778.0,STARLINK-3615,PAYLOAD,2022-10-22 21:22:05,15.08849309,0.0001872,53.2165,107.8533,54.7176,305.3991,0.00010348,1.36e-05,0.0,0 STARLINK-3615,1 51778U 22017L   22295.89033814  .00001360  00000-0  10348-3 0  9995,2 51778  53.2165 107.8533 0001872  54.7176 305.3991 15.08849309 37947,6917.852,95.437,541.012,538.422,0.0
51778.0,STARLINK-3615,PAYLOAD,2022-10-23 11:40:33,15.08851696,0.0001886999999999,53.2166,105.1772,55.1104,305.0065,7.0332e-05,8.32e-06,0.0,0 STARLINK-3615,1 51778U 22017L   22296.48649369  .00000832  00000-0  70332-4 0  9992,2 51778  53.2166 105.1772 0001887  55.1104 305.0065 15.08851696 36384,6917.845,95.437,541.015,538.404,0.0
51778.0,STARLINK-3615,PAYLOAD,2022-10-23 19:37:29,15.08843358,0.0001859,53.2166,103.6904,53.6423,306.4741,-1.8309e-05,-5.8e-06,0.0,0 STARLINK-3615,1 51778U 22017L   22296.81769905 -.00000580  00000-0 -18309-4 0  9996,2 51778  53.2166 103.6904 0001859  53.6423 306.4741 15.08843358 36438,6917.87,95.437,541.021,538.4490000000002,0.0
51778.0,STARLINK-3615,PAYLOAD,2022-10-23 21:12:52,15.08843655,0.0001861,53.2165,103.3928,53.4227,306.6936,-2.2966e-05,-6.54e-06,0.0,0 STARLINK-3615,1 51778U 22017L   22296.88393849 -.00000654  00000-0 -22966-4 0  9999,2 51778  53.2165 103.3928 0001861  53.4227 306.6936 15.08843655 38095,6917.869000000002,95.437,541.0219999999998,538.447,0.0
